ONEWEB-0545             
1 54647U 22166F   25277.48787166  .00000039  00000+0  63003-4 0  9990
2 54647  87.9176 295.0121 0001565  79.2843 280.8467 13.21824315137721
ONEWEB-0580             
1 54648U 22166G   25277.46106275  .00000069  00000+0  13519-3 0  9994
2 54648  87.9177 295.0156 0001887  81.1864 278.9483 13.21826124137763
ONEWEB-0582             
1 54649U 22166H   25277.50364839  .00000042  00000+0  70412-4 0  9999
2 54649  87.9176 295.0002 0001872  77.9892 282.1452 13.21825048137746
ONEWEB-0583             
1 54650U 22166J   25277.43899433  .00000061  00000+0  11725-3 0  9998
2 54650  87.9175 295.0388 0001795  89.5424 270.5916 13.21825498137743
ONEWEB-0584             
1 54651U 22166K   25277.45948678  .00000064  00000+0  12384-3 0  9992
2 54651  87.9176 295.0193 0001989  80.4079 279.7279 13.21824976137732
ONEWEB-0585             
1 54652U 22166L   25277.48472237  .00000048  00000+0  85891-4 0  9995
2 54652  87.9176 295.0001 0001990  95.7396 264.3965 13.21824860137749
ONEWEB-0586             
1 54653U 22166M   25277.42164241 -.00000019  00000+0 -77960-4 0  9991
2 54653  87.9177 295.0379 0001805  88.3385 271.7955 13.21825757137736
ONEWEB-0587             
1 54654U 22166N   25277.43109529 -.00000011  00000+0 -57700-4 0  9993
2 54654  87.9186 294.9850 0002129 102.5168 257.6204 13.21827400137891
